OBJECT_NAME,OBJECT_ID,EPOCH,MEAN_MOTION,ECCENTRICITY,INCLINATION,RA_OF_ASC_NODE,ARG_OF_PERICENTER,MEAN_ANOMALY,EPHEMERIS_TYPE,CLASSIFICATION_TYPE,NORAD_CAT_ID,ELEMENT_SET_NO,REV_AT_EPOCH,BSTAR,MEAN_MOTION_DOT,MEAN_MOTION_DDOT
PADRE,2025-135AH,2026-07-07T06:11:17.244672,14.92554837,.0002098,97.7739,301.6684,154.8188,205.3133,0,U,64559,999,5684,.17477E-3,.174E-4,0
TRANSPORTER-14 OBJECT AJ,2025-135AJ,2026-07-07T13:03:38.526624,14.95807936,.0001631,97.7756,303.0699,120.7413,239.3969,0,U,64560,999,5695,.31619E-3,.3471E-4,0
LEMUR-2-KRISH,2025-135AK,2026-07-07T06:28:53.031072,14.96401488,.0001744,97.7760,303.0109,100.7810,259.3608,0,U,64561,999,5692,.37657E-3,.421E-4,0
HUBBLE 6,2025-135AL,2026-07-07T13:18:23.667840,14.93723966,.0001711,97.7765,302.5080,90.2080,269.9336,0,U,64562,999,5691,.12725E-3,.129E-4,0
AE3VA,2025-135AM,2026-07-07T06:34:22.509696,14.97411081,.0002822,97.7697,303.0463,166.0575,194.0725,0,U,64563,999,5694,.45425E-3,.5225E-4,0
TIME FLIES,2025-135AN,2026-07-07T04:51:00.592416,14.95071731,.0002197,97.7725,302.4776,161.6804,198.4496,0,U,64564,999,5689,.38599E-3,.4171E-4,0
LEMUR-2-HUBBLE-4,2025-135AP,2026-07-07T05:40:18.962976,14.93668736,.0001964,97.7713,301.9077,185.5472,174.5726,0,U,64565,999,5686,.10797E-3,.1085E-4,0
ARVAKER-3,2025-135AQ,2026-07-07T12:33:29.054016,14.93697915,.000127,97.7738,302.4246,181.8808,178.2408,0,U,64566,999,5691,.18015E-3,.1849E-4,0
ARVAKER-2,2025-135AR,2026-07-07T12:48:24.090624,14.93638203,.0000794,97.7755,302.4670,167.3935,192.7305,0,U,64567,999,5691,.21904E-3,.2257E-4,0
IRIDE-MS2-HEO-3,2025-135AS,2026-07-07T12:55:55.792416,14.92007865,.0001278,97.7748,302.4088,133.4391,226.6935,0,U,64568,999,5691,.17234E-3,.1691E-4,0
IRIDE-MS2-HEO-2,2025-135AT,2026-07-07T13:26:10.250304,14.93733375,.0000412,97.7770,302.6340,337.2743,22.8459,0,U,64569,999,5692,.86245E-4,.856E-5,0
ICEYE-X54,2025-135AU,2026-07-07T12:15:23.516640,14.94702526,.0001519,97.7733,302.7384,215.1940,144.9180,0,U,64570,999,5693,.1894E-3,.1998E-4,0
IRIDE-MS2-HEO-5,2025-135AV,2026-07-07T12:22:51.669984,14.91995886,.0000515,97.7740,302.4161,139.6151,220.5106,0,U,64571,999,5691,.13993E-3,.1362E-4,0
ICEYE-X52,2025-135AW,2026-07-07T13:40:49.260576,14.93633900,.0000701,97.7758,302.5969,235.6368,124.4786,0,U,64572,999,5692,.10213E-3,.1022E-4,0
MUSAT-3ALPHA,2025-135AX,2026-07-06T21:46:36.268608,15.03690485,.0003415,97.7112,302.0871,152.2390,207.9018,0,U,64573,999,5689,.19271E-3,.2579E-4,0
ICEYE-X56,2025-135AY,2026-07-07T13:41:13.653888,14.95732367,.0000875,97.7756,303.3714,245.7765,114.3365,0,U,64574,999,5697,.17924E-3,.1939E-4,0
ION SCV-018,2025-135AZ,2026-07-06T21:40:53.601024,14.94685391,.0011622,97.7796,302.8095,222.2061,137.8265,0,U,64575,999,5687,.5011E-4,.486E-5,0
IRIDE-MS2-HEO-6,2025-135BA,2026-07-07T13:26:03.205248,14.91981350,.0000356,97.7743,302.4855,144.3034,215.8208,0,U,64576,999,5692,.14103E-3,.1373E-4,0
LYRA-3,2025-135BB,2026-07-07T12:27:57.799008,14.74536558,.0019333,97.7746,292.7104,276.8115,83.0895,0,U,64577,999,5626,.19421E-3,.1247E-4,0
ICEYE-X57,2025-135BC,2026-07-07T09:37:18.744960,15.00872542,.0002061,97.7998,304.9273,61.3889,298.7541,0,U,64578,999,5705,.2843E-3,.3556E-4,0
GRUS-3ALPHA,2025-135BD,2026-07-07T12:42:27.938592,14.93175696,.0001565,97.7783,302.5656,298.7285,61.3777,0,U,64579,999,5691,.13941E-3,.1399E-4,0
YAM-10,2025-135BE,2026-07-07T06:24:31.555296,14.91884589,.0001608,97.7745,301.8423,296.2864,63.8190,0,U,64580,999,5685,.19418E-3,.1907E-4,0
ICEYE-X55,2025-135BF,2026-07-07T13:49:02.085312,14.95330709,.0001909,97.7753,303.2072,279.2088,80.8917,0,U,64581,999,5696,.19229E-3,.2062E-4,0
IRIDE-MS2-HEO-4,2025-135BG,2026-07-07T13:42:45.459072,14.91949427,.0000134,97.7741,302.6409,225.3081,134.8127,0,U,64582,999,5693,.10382E-3,.995E-5,0
CAPELLA-17 (ACADIA-7),2025-135BH,2026-07-06T20:40:04.967040,14.91559067,.0003748,97.7698,301.1922,287.3419,72.7389,0,U,64583,999,5678,.53205E-3,.528E-4,0
ICEYE-X53,2025-135BJ,2026-07-07T13:23:48.012576,15.00862751,.0001654,97.7369,305.2524,166.5066,193.6202,0,U,64584,999,5713,.37437E-4,.416E-5,0
IRIDE-MS2-HEO-9,2025-135BK,2026-07-07T13:11:01.754304,14.91953405,.0000261,97.7777,302.8119,4.1871,355.9350,0,U,64585,999,5693,.13852E-3,.1346E-4,0
LEMUR-2-SEJONG-2,2025-135BL,2026-07-07T13:27:44.995680,14.96876328,.0003223,97.7706,303.4461,253.1473,106.9396,0,U,64586,999,5699,.19396E-3,.2166E-4,0
IRIDE-MS2-HEO-8,2025-135BM,2026-07-07T11:03:24.365088,14.92008735,.0000134,97.7751,302.6784,336.5666,23.5546,0,U,64587,999,5692,.17463E-3,.1714E-4,0
BIFROST-DNK,2025-135BN,2026-07-07T13:24:11.503008,14.94741751,.0002867,97.7764,303.0574,283.6057,76.4843,0,U,64588,999,5695,.18355E-3,.1936E-4,0
