PADRE                   
1 64559U 25135AH  26188.25783848  .00001740  00000+0  17477-3 0  9995
2 64559  97.7739 301.6684 0002098 154.8188 205.3133 14.92554837 56843
TRANSPORTER-14 OBJECT AJ
1 64560U 25135AJ  26188.54419591  .00003471  00000+0  31619-3 0  9997
2 64560  97.7756 303.0699 0001631 120.7413 239.3969 14.95807936 56951
LEMUR-2-KRISH           
1 64561U 25135AK  26188.27005823  .00004210  00000+0  37657-3 0  9997
2 64561  97.7760 303.0109 0001744 100.7810 259.3608 14.96401488 56929
HUBBLE 6                
1 64562U 25135AL  26188.55444060  .00001290  00000+0  12725-3 0  9993
2 64562  97.7765 302.5080 0001711  90.2080 269.9336 14.93723966 56912
AE3VA                   
1 64563U 25135AM  26188.27387164  .00005225  00000+0  45425-3 0  9999
2 64563  97.7697 303.0463 0002822 166.0575 194.0725 14.97411081 56942
TIME FLIES              
1 64564U 25135AN  26188.20209019  .00004171  00000+0  38599-3 0  9998
2 64564  97.7725 302.4776 0002197 161.6804 198.4496 14.95071731 56895
LEMUR-2-HUBBLE-4        
1 64565U 25135AP  26188.23633059  .00001085  00000+0  10797-3 0  9998
2 64565  97.7713 301.9077 0001964 185.5472 174.5726 14.93668736 56861
ARVAKER-3               
1 64566U 25135AQ  26188.52325294  .00001849  00000+0  18015-3 0  9999
2 64566  97.7738 302.4246 0001270 181.8808 178.2408 14.93697915 56910
ARVAKER-2               
1 64567U 25135AR  26188.53361216  .00002257  00000+0  21904-3 0  9990
2 64567  97.7755 302.4670 0000794 167.3935 192.7305 14.93638203 56913
IRIDE-MS2-HEO-3         
1 64568U 25135AS  26188.53884019  .00001691  00000+0  17234-3 0  9994
2 64568  97.7748 302.4088 0001278 133.4391 226.6935 14.92007865 56916
IRIDE-MS2-HEO-2         
1 64569U 25135AT  26188.55984086  .00000856  00000+0  86245-4 0  9993
2 64569  97.7770 302.6340 0000412 337.2743  22.8459 14.93733375 56920
ICEYE-X54               
1 64570U 25135AU  26188.51068885  .00001998  00000+0  18940-3 0  9995
2 64570  97.7733 302.7384 0001519 215.1940 144.9180 14.94702526 56935
IRIDE-MS2-HEO-5         
1 64571U 25135AV  26188.51587581  .00001362  00000+0  13993-3 0  9993
2 64571  97.7740 302.4161 0000515 139.6151 220.5106 14.91995886 56910
ICEYE-X52               
1 64572U 25135AW  26188.57001459  .00001022  00000+0  10213-3 0  9990
2 64572  97.7758 302.5969 0000701 235.6368 124.4786 14.93633900 56926
MUSAT-3ALPHA            
1 64573U 25135AX  26187.90736422  .00002579  00000+0  19271-3 0  9993
2 64573  97.7112 302.0871 0003415 152.2390 207.9018 15.03690485 56896
ICEYE-X56               
1 64574U 25135AY  26188.57029692  .00001939  00000+0  17924-3 0  9994
2 64574  97.7756 303.3714 0000875 245.7765 114.3365 14.95732367 56973
ION SCV-018             
1 64575U 25135AZ  26187.90339816  .00000486  00000+0  50110-4 0  9994
2 64575  97.7796 302.8095 0011622 222.2061 137.8265 14.94685391 56876
IRIDE-MS2-HEO-6         
1 64576U 25135BA  26188.55975932  .00001373  00000+0  14103-3 0  9999
2 64576  97.7743 302.4855 0000356 144.3034 215.8208 14.91981350 56926
LYRA-3                  
1 64577U 25135BB  26188.51941897  .00001247  00000+0  19421-3 0  9997
2 64577  97.7746 292.7104 0019333 276.8115  83.0895 14.74536558 56265
ICEYE-X57               
1 64578U 25135BC  26188.40091140  .00003556  00000+0  28430-3 0  9998
2 64578  97.7998 304.9273 0002061  61.3889 298.7541 15.00872542 57050
GRUS-3ALPHA             
1 64579U 25135BD  26188.52949003  .00001399  00000+0  13941-3 0  9996
2 64579  97.7783 302.5656 0001565 298.7285  61.3777 14.93175696 56912
YAM-10                  
1 64580U 25135BE  26188.26703189  .00001907  00000+0  19418-3 0  9992
2 64580  97.7745 301.8423 0001608 296.2864  63.8190 14.91884589 56855
ICEYE-X55               
1 64581U 25135BF  26188.57571858  .00002062  00000+0  19229-3 0  9996
2 64581  97.7753 303.2072 0001909 279.2088  80.8917 14.95330709 56966
IRIDE-MS2-HEO-4         
1 64582U 25135BG  26188.57135948  .00000995  00000+0  10382-3 0  9997
2 64582  97.7741 302.6409 0000134 225.3081 134.8127 14.91949427 56934
CAPELLA-17 (ACADIA-7)   
1 64583U 25135BH  26187.86116860  .00005280  00000+0  53205-3 0  9994
2 64583  97.7698 301.1922 0003748 287.3419  72.7389 14.91559067 56787
ICEYE-X53               
1 64584U 25135BJ  26188.55819459  .00000416  00000+0  37437-4 0  9992
2 64584  97.7369 305.2524 0001654 166.5066 193.6202 15.00862751 57131
IRIDE-MS2-HEO-9         
1 64585U 25135BK  26188.54932586  .00001346  00000+0  13852-3 0  9996
2 64585  97.7777 302.8119 0000261   4.1871 355.9350 14.91953405 56932
LEMUR-2-SEJONG-2        
1 64586U 25135BL  26188.56093745  .00002166  00000+0  19396-3 0  9994
2 64586  97.7706 303.4461 0003223 253.1473 106.9396 14.96876328 56990
IRIDE-MS2-HEO-8         
1 64587U 25135BM  26188.46069867  .00001714  00000+0  17463-3 0  9993
2 64587  97.7751 302.6784 0000134 336.5666  23.5546 14.92008735 56927
BIFROST-DNK             
1 64588U 25135BN  26188.55846647  .00001936  00000+0  18355-3 0  9990
2 64588  97.7764 303.0574 0002867 283.6057  76.4843 14.94741751 56959
